HST                     
1 20580U 90037B   26195.52261565  .00003561  00000+0  10789-3 0  9991
2 20580  28.4723 253.7049 0002219  97.0463 263.0385 15.31057008792764
POLAR                   
1 23802U 96013A   26195.76553022  .00000202  00000+0  00000+0 0  9999
2 23802  79.8911 226.7248 6498087 208.1291  91.6735  1.29846068145216
SWAS                    
1 25560U 98071A   26195.91017850  .00001584  00000+0  10446-3 0  9992
2 25560  69.8940 156.0189 0007972 230.8614 129.1843 15.09746015501456
CXO                     
1 25867U 99040B   26198.46886808  .00000598  00000+0  00000+0 0  9994
2 25867  56.6226 115.7943 7787022 310.0504   0.5333  0.37805709 17431
XMM-NEWTON              
1 25989U 99066A   26197.27126138  .00000020  00000+0  00000+0 0  9998
2 25989  64.3306 282.6120 4665766  64.4091   0.1022  0.50127411 23148
TERRA                   
1 25994U 99068A   26195.90054461  .00000192  00000+0  47981-4 0  9997
2 25994  97.9442 244.3459 0003399 123.2466 355.1489 14.61123566413654
CLUSTER II-FM7 (SAMBA)  
1 26410U 00041A   26192.68021872  .00012833  00000+0  00000+0 0  9997
2 26410 149.8437  55.3938 9082311 272.8334 359.6328  0.44896530 20420
CLUSTER II-FM8 (TANGO)  
1 26464U 00045B   26195.45080911  .00019808  00000+0  00000+0 0  9996
2 26464 150.0346  57.1658 9090381 274.4944   1.9905  0.44416740 20432
ODIN                    
1 26702U 01007A   26195.67664948  .00265052  27453-4  92871-3 0  9993
2 26702  97.3731 238.6206 0005106 151.7474 208.4076 15.89212959393741
TIMED                   
1 26998U 01055B   26195.37182817  .00000553  00000+0  53721-4 0  9999
2 26998  74.0665 180.2799 0002220 301.5234  58.5733 14.95343591334885
CORIOLIS                
1 27640U 03001A   26195.96034833  .00000041  00000+0  39753-4 0  9997
2 27640  98.7134 202.4216 0014908 129.8504 230.3986 14.19951781218166
SORCE                   
1 27651U 03004A   26194.17261998  .00001531  00000+0  11990-3 0  9995
2 27651  39.9908 113.4042 0018576 240.8928 119.0006 15.03836025275819
MOST                    
1 27843U 03031D   26195.87717143  .00000016  00000+0  27507-4 0  9993
2 27843  98.7053 203.2172 0010073 165.9574 194.1885 14.21327663194648
SCISAT 1                
1 27858U 03036A   26195.91250046  .00000278  00000+0  40138-4 0  9998
2 27858  73.9301 116.2566 0007390 184.4440 175.6672 14.81478812235554
SWIFT                   
1 28485U 04047A   26195.51335693  .00043330  00000+0  31959-3 0  9992
2 28485  20.5530 333.6864 0002053  17.5678 342.4839 15.71113940191164
HINODE (SOLAR-B)        
1 29479U 06041A   26195.91472562  .00000299  00000+0  59811-4 0  9998
2 29479  98.0548 211.6585 0017004 195.3633 164.7059 14.68658055 58943
SHIJIAN-6 02A (SJ-6 02A)
1 29505U 06046A   26195.99140861  .00003019  00000+0  15521-3 0  9997
2 29505  97.6349 237.2692 0004270  63.2111 296.9559 15.17243389 76482
SHIJIAN-6 02B (SJ-6 02B)
1 29506U 06046B   26195.93758435  .00000507  00000+0  43980-4 0  9994
2 29506  97.7147 224.8241 0013434 337.2640  22.7987 15.01437325 74908
FGRST (GLAST)           
1 33053U 08029A   26194.87715061  .00002161  00000+0  73017-4 0  9991
2 33053  25.5829  19.1417 0007749 283.0885  76.8788 15.24072309999915
SDO                     
1 36395U 10005A   26195.27947453 -.00000106  00000+0  00000+0 0  9992
2 36395  34.7062  85.9305 0001959  51.0470 153.5206  1.00277077 60336
CRYOSAT 2               
1 36508U 10013A   26195.92526327  .00000125  00000+0  30342-4 0  9999
2 36508  92.0359 284.0449 0002387  98.4711 261.6767 14.51898323862109
X-SAT                   
1 37389U 11015C   26195.95657236 -.00000070  00000+0 -12197-4 0  9996
2 37389  98.3520 171.6594 0012718 261.6486  98.3252 14.25213700791634
GCOM-W1 (SHIZUKU)       
1 38337U 12025A   26195.84408251  .00000203  00000+0  55083-4 0  9998
2 38337  98.2023 135.9816 0001320  77.8838 345.1222 14.57090026753064
NUSTAR                  
1 38358U 12031A   26195.91670139  .00001489  00000+0  38932-4 0  9993
2 38358   6.0247 186.1028 0007399 170.0944 121.2487 15.09041828  1304
NEOSSAT                 
1 39089U 13009D   26195.45687139  .00000058  00000+0  34915-4 0  9996
2 39089  98.4189  14.8427 0011412 159.3934 200.7715 14.35835508700651
BRITE-AUSTRIA           
1 39091U 13009F   26195.44191914  .00000082  00000+0  42362-4 0  9991
2 39091  98.4007  14.2048 0010722 152.8336 207.3414 14.36552341700968
IRIS                    
1 39197U 13033A   26195.50489391  .00000509  00000+0  64465-4 0  9993
2 39197  97.9319  34.6959 0023280 227.3924 132.5328 14.85936126704436
HISAKI (SPRINT-A)       
1 39253U 13049A   26195.37845452  .00000081  00000+0  18458-4 0  9998
2 39253  29.7209  81.7649 0136952 237.2707 121.4597 13.55546668635116
CASSIOPE                
1 39265U 13055A   26195.89027601  .00020554 -53260-6  22033-3 0  9997
2 39265  80.9127  33.0119 0282905 328.9181  29.5571 15.27407988671890
STSAT-3                 
1 39422U 13066G   26195.94441441  .00001359  00000+0  10573-3 0  9996
2 39422  97.6186 165.3845 0008925 306.3581  53.6820 15.02884499688377
